[{"OBJECT_NAME":"JY1SAT (JO-97)","OBJECT_ID":"2018-099AX","EPOCH":"2026-03-09T16:28:19.890048","MEAN_MOTION":15.30302629,"ECCENTRICITY":0.00047232,"INCLINATION":97.4249,"RA_OF_ASC_NODE":131.3625,"ARG_OF_PERICENTER":256.6795,"MEAN_ANOMALY":103.3919,"EPHEMERIS_TYPE":0,"CLASSIFICATION_TYPE":"U","NORAD_CAT_ID":43803,"ELEMENT_SET_NO":999,"REV_AT_EPOCH":39839,"BSTAR":0.00060804308,"MEAN_MOTION_DOT":0.00017774,"MEAN_MOTION_DDOT":0},{"OBJECT_NAME":"STARLINK-30443","OBJECT_ID":"2023-146D","EPOCH":"2026-03-09T22:00:01.999584","MEAN_MOTION":15.09793918,"ECCENTRICITY":0.00013638,"INCLINATION":43.0002,"RA_OF_ASC_NODE":312.1358,"ARG_OF_PERICENTER":250.5058,"MEAN_ANOMALY":343.7667,"EPHEMERIS_TYPE":0,"CLASSIFICATION_TYPE":"U","NORAD_CAT_ID":57894,"ELEMENT_SET_NO":999,"REV_AT_EPOCH":572,"BSTAR":0.096005577,"MEAN_MOTION_DOT":0.01730999,"MEAN_MOTION_DDOT":0}]
